OBJECT_NAME,OBJECT_ID,EPOCH,MEAN_MOTION,ECCENTRICITY,INCLINATION,RA_OF_ASC_NODE,ARG_OF_PERICENTER,MEAN_ANOMALY,EPHEMERIS_TYPE,CLASSIFICATION_TYPE,NORAD_CAT_ID,ELEMENT_SET_NO,REV_AT_EPOCH,BSTAR,MEAN_MOTION_DOT,MEAN_MOTION_DDOT
STARLINK-32826,2025-029Y,2026-07-17T10:05:36.403872,15.30205946,.0001635,53.1639,349.6082,80.5660,279.5526,0,U,62970,999,8118,.27712E-3,.7858E-4,0
STARLINK-11543 [DTC],2025-031A,2026-07-17T15:17:30.846048,15.70841784,.0001612,42.9988,297.8348,263.4939,96.5745,0,U,62981,999,8318,.84473E-3,.109388E-2,0
STARLINK-11458 [DTC],2025-031B,2026-07-17T08:02:39.007680,15.70888966,.0003052,43.0035,299.8840,286.5804,73.4728,0,U,62982,999,8313,.83496E-3,.108332E-2,0
STARLINK-11539 [DTC],2025-031G,2026-07-17T08:10:17.534208,15.70826433,.0003526,42.9987,299.9195,296.5206,63.5300,0,U,62987,999,8313,.12412E-2,.161888E-2,0
STARLINK-11542 [DTC],2025-031H,2026-07-17T15:25:09.014016,15.70954133,.0003681,43.0032,297.8754,268.5808,91.4638,0,U,62988,999,8315,.72462E-3,.94062E-3,0
STARLINK-11572 [DTC],2025-031K,2026-07-17T14:02:33.345024,15.70874945,.0000791,42.9997,298.3080,203.0130,157.0702,0,U,62990,999,8317,.98365E-3,.127914E-2,0
STARLINK-11583 [DTC],2025-031L,2026-07-17T14:47:06.948096,15.70846415,.0001794,42.9992,298.5558,256.6925,103.3742,0,U,62991,999,8318,.75582E-3,.97709E-3,0
STARLINK-32819,2025-031Q,2026-07-17T04:56:00.449664,15.27576123,.0001268,43.0022,131.8431,278.3915,81.6793,0,U,62995,999,8090,.1727E-4,.213E-5,0
STARLINK-32703,2025-031R,2026-07-17T04:02:33.802656,15.27582654,.00007187,43.0013,132.4291,293.8626,66.2151,0,U,62996,999,8089,.17211402E-3,.4478E-4,0
STARLINK-32881,2025-031S,2026-07-17T04:41:12.813216,15.27609376,.00006319,42.9959,131.7674,44.1227,315.9675,0,U,62997,999,8090,.34145279E-3,.9154E-4,0
STARLINK-32898,2025-031T,2026-07-17T03:53:18.487392,15.27582200,.00013767,43.0001,132.3773,267.0203,93.0491,0,U,62998,999,8089,.2909287E-3,.7753E-4,0
STARLINK-32658,2025-031U,2026-07-17T12:37:32.399616,15.27581232,.000032,42.9992,129.9490,338.9954,21.0884,0,U,62999,999,8095,.34945E-3,.9367E-4,0
STARLINK-32673,2025-031V,2026-07-17T03:38:30.140736,15.27581893,.00016895,43.0049,132.2947,260.3425,99.7236,0,U,63000,999,8089,.2777798E-3,.739E-4,0
STARLINK-32437,2025-031W,2026-07-17T12:06:17.696736,15.27578778,.0000937,43.0028,130.6447,273.9137,86.1607,0,U,63001,999,8094,.29743E-3,.7931E-4,0
STARLINK-11448 [DTC],2025-032A,2026-07-17T04:21:54.565056,15.70953099,.00047422,43.0020,134.4422,243.8932,116.1448,0,U,63005,999,8259,.10943646E-2,.143157E-2,0
STARLINK-11553 [DTC],2025-032B,2026-07-17T05:38:22.284096,15.70888854,.0003742,43.0050,134.8711,283.9035,76.1417,0,U,63006,999,8258,.9293E-3,.120818E-2,0
STARLINK-11526 [DTC],2025-032C,2026-07-17T04:14:16.499904,15.70863708,.00025657,43.0024,134.3964,267.1036,92.9538,0,U,63007,999,8258,.7781091E-3,.10072E-2,0
STARLINK-11405 [DTC],2025-032D,2026-07-17T13:02:12.579360,15.70863386,.0000366,43.0007,132.8750,323.8320,36.2523,0,U,63008,999,8248,.11112E-2,.144781E-2,0
STARLINK-11586 [DTC],2025-032E,2026-07-17T05:00:09.265248,15.70856228,.0001448,43.0015,134.6552,277.3110,82.7593,0,U,63009,999,8258,.83039E-3,.107563E-2,0
STARLINK-11574 [DTC],2025-032F,2026-07-17T05:15:26.848800,15.70852267,.0000949,43.0016,134.7402,308.1884,51.8898,0,U,63010,999,8258,.82872E-3,.107324E-2,0
STARLINK-11580 [DTC],2025-032G,2026-07-17T12:15:01.152864,15.70856998,.0001134,43.0013,132.6100,277.8898,82.1841,0,U,63011,999,8248,.94845E-3,.123156E-2,0
