STARLINK-32826          
1 62970U 25029Y   26198.42056024  .00007858  00000+0  27712-3 0  9990
2 62970  53.1639 349.6082 0001634  80.5660 279.5526 15.30205946 81183
STARLINK-11543 [DTC]    
1 62981U 25031A   26198.63716258  .00109388  00000+0  84473-3 0  9998
2 62981  42.9988 297.8348 0001612 263.4939  96.5745 15.70841784 83186
STARLINK-11458 [DTC]    
1 62982U 25031B   26198.33517371  .00108332  00000+0  83496-3 0  9993
2 62982  43.0035 299.8840 0003051 286.5804  73.4728 15.70888966 83130
STARLINK-11539 [DTC]    
1 62987U 25031G   26198.34048072  .00161888  00000+0  12412-2 0  9990
2 62987  42.9987 299.9195 0003526 296.5206  63.5300 15.70826433 83134
STARLINK-11542 [DTC]    
1 62988U 25031H   26198.64246545  .00094062  00000+0  72462-3 0  9990
2 62988  43.0032 297.8754 0003680 268.5808  91.4638 15.70954133 83159
STARLINK-11572 [DTC]    
1 62990U 25031K   26198.58510816  .00127914  00000+0  98365-3 0  9994
2 62990  42.9997 298.3080 0000791 203.0130 157.0702 15.70874945 83175
STARLINK-11583 [DTC]    
1 62991U 25031L   26198.61605265  .00097709  00000+0  75582-3 0  9996
2 62991  42.9992 298.5558 0001794 256.6925 103.3742 15.70846415 83183
STARLINK-32819          
1 62995U 25031Q   26198.20556077  .00000213  00000+0  17270-4 0  9996
2 62995  43.0022 131.8431 0001268 278.3915  81.6793 15.27576123 80907
STARLINK-32703          
1 62996U 25031R   26198.16844679  .00004478  00000+0  17211-3 0  9991
2 62996  43.0013 132.4291 0000718 293.8626  66.2151 15.27582654 80890
STARLINK-32881          
1 62997U 25031S   26198.19528719  .00009154  00000+0  34145-3 0  9990
2 62997  42.9959 131.7674 0000631  44.1227 315.9675 15.27609376 80901
STARLINK-32898          
1 62998U 25031T   26198.16201953  .00007753  00000+0  29093-3 0  9995
2 62998  43.0001 132.3773 0001376 267.0203  93.0491 15.27582200 80890
STARLINK-32658          
1 62999U 25031U   26198.52606945  .00009367  00000+0  34945-3 0  9991
2 62999  42.9992 129.9490 0000319 338.9954  21.0884 15.27581232 80951
STARLINK-32673          
1 63000U 25031V   26198.15173774  .00007390  00000+0  27778-3 0  9993
2 63000  43.0049 132.2947 0001689 260.3425  99.7236 15.27581893 80895
STARLINK-32437          
1 63001U 25031W   26198.50437150  .00007931  00000+0  29743-3 0  9999
2 63001  43.0028 130.6447 0000937 273.9137  86.1607 15.27578778 80941
STARLINK-11448 [DTC]    
1 63005U 25032A   26198.18188154  .00143157  00000+0  10944-2 0  9998
2 63005  43.0020 134.4422 0004742 243.8932 116.1448 15.70953099 82590
STARLINK-11553 [DTC]    
1 63006U 25032B   26198.23498014  .00120818  00000+0  92930-3 0  9999
2 63006  43.0050 134.8711 0003742 283.9035  76.1417 15.70888854 82583
STARLINK-11526 [DTC]    
1 63007U 25032C   26198.17657986  .00100720  00000+0  77811-3 0  9999
2 63007  43.0024 134.3964 0002565 267.1036  92.9538 15.70863708 82588
STARLINK-11405 [DTC]    
1 63008U 25032D   26198.54320115  .00144781  00000+0  11112-2 0  9998
2 63008  43.0007 132.8750 0000365 323.8320  36.2523 15.70863386 82484
STARLINK-11586 [DTC]    
1 63009U 25032E   26198.20844057  .00107563  00000+0  83039-3 0  9993
2 63009  43.0015 134.6552 0001447 277.3110  82.7593 15.70856228 82587
STARLINK-11574 [DTC]    
1 63010U 25032F   26198.21906076  .00107324  00000+0  82872-3 0  9995
2 63010  43.0016 134.7402 0000949 308.1884  51.8898 15.70852267 82586
STARLINK-11580 [DTC]    
1 63011U 25032G   26198.51043002  .00123156  00000+0  94845-3 0  9994
2 63011  43.0013 132.6100 0001134 277.8898  82.1841 15.70856998 82489
